STARLINK-30101
1 56301U 23056R   26061.16668981  .01255289  00000+0  58251-1 0  9994
2 56301  43.0001 250.6196 0001057 276.6635 257.0423 15.16676017  5763
STARLINK-30857
1 58595U 23200G   26061.16668981  .02229777  00000+0  10124+0 0  9991
2 58595  43.0000 210.9905 0001352 306.7617  77.0614 15.16656870  5665
